O3B MPOWER F1           
1 54755U 22174A   26196.14054130 -.00000023  00000+0  00000+0 0  9998
2 54755   0.0492 339.3927 0006637 145.1379 257.8516  5.00114688 66752
O3B MPOWER F2           
1 54756U 22174B   26195.69507568 -.00000023  00000+0  00000+0 0  9996
2 54756   0.0451 339.8088 0005789 128.0659 252.1850  5.00114920 66825
O3B MPOWER F4           
1 56367U 23059A   26195.95919586 -.00000023  00000+0  00000+0 0  9995
2 56367   0.0629 349.9688 0007730 126.8525 243.2543  5.00115384 59991
O3B MPOWER F3           
1 56368U 23059B   26195.99232808 -.00000023  00000+0  00000+0 0  9995
2 56368   0.0636 349.2470 0006669 120.8493 249.9719  5.00116436 56129
O3B MPOWER F5           
1 58346U 23175A   26196.09332524 -.00000023  00000+0  00000+0 0  9990
2 58346   0.0523   9.1642 0005505 122.6080 228.2711  5.00115828 50833
O3B MPOWER F6           
1 58347U 23175B   26195.99391171 -.00000023  00000+0  00000+0 0  9992
2 58347   0.0540   0.8408 0004431 111.3634 247.8392  5.00115739 49749
O3B MPOWER F7           
1 62362U 24244A   26195.66053122 -.00000023  00000+0  00000+0 0  9997
2 62362   0.0660 342.9592 0005930 126.1262 250.9755  5.00115331 27904
O3B MPOWER F8           
1 62363U 24244B   26196.02726256 -.00000023  00000+0  00000+0 0  9994
2 62363   0.0145   4.1384 0005756  98.0568 257.8655  5.00115028 22263
O3B MPOWER F9           
1 64866U 25153A   26195.96064441 -.00000023  00000+0  00000+0 0  9997
2 64866   0.0613   5.5774 0006727 126.2301 228.2465  5.00115623 20955
O3B MPOWER F10          
1 64867U 25153B   26196.12658734 -.00000023  00000+0  00000+0 0  9991
2 64867   0.0584   2.1621 0002469 245.0830 112.7250  5.00114871 23421
