{"fetched_at":"2026-07-15T17:47:24.282Z","source":"https://celestrak.org/NORAD/elements/gp.php?NAME=O3B&FORMAT=JSON","constellation":"o3b-mpower","records":[{"OBJECT_NAME":"O3B MPOWER F1","OBJECT_ID":"2022-174A","EPOCH":"2026-07-15T03:22:22.768320","CLASSIFICATION_TYPE":"U","MEAN_MOTION":5.00114688,"ECCENTRICITY":0.0006637,"INCLINATION":0.0492,"RA_OF_ASC_NODE":339.3927,"ARG_OF_PERICENTER":145.1379,"MEAN_ANOMALY":257.8516,"EPHEMERIS_TYPE":0,"NORAD_CAT_ID":54755,"ELEMENT_SET_NO":999,"REV_AT_EPOCH":6675,"BSTAR":0,"MEAN_MOTION_DOT":-2.3e-7,"MEAN_MOTION_DDOT":0},{"OBJECT_NAME":"O3B MPOWER F2","OBJECT_ID":"2022-174B","EPOCH":"2026-07-14T16:40:54.538752","CLASSIFICATION_TYPE":"U","MEAN_MOTION":5.0011492,"ECCENTRICITY":0.00057894,"INCLINATION":0.0451,"RA_OF_ASC_NODE":339.8088,"ARG_OF_PERICENTER":128.0659,"MEAN_ANOMALY":252.185,"EPHEMERIS_TYPE":0,"NORAD_CAT_ID":54756,"ELEMENT_SET_NO":999,"REV_AT_EPOCH":6682,"BSTAR":0,"MEAN_MOTION_DOT":-2.3e-7,"MEAN_MOTION_DDOT":0},{"OBJECT_NAME":"O3B MPOWER F4","OBJECT_ID":"2023-059A","EPOCH":"2026-07-14T23:01:14.522304","CLASSIFICATION_TYPE":"U","MEAN_MOTION":5.00115384,"ECCENTRICITY":0.000773,"INCLINATION":0.0629,"RA_OF_ASC_NODE":349.9688,"ARG_OF_PERICENTER":126.8525,"MEAN_ANOMALY":243.2543,"EPHEMERIS_TYPE":0,"NORAD_CAT_ID":56367,"ELEMENT_SET_NO":999,"REV_AT_EPOCH":5999,"BSTAR":0,"MEAN_MOTION_DOT":-2.3e-7,"MEAN_MOTION_DDOT":0},{"OBJECT_NAME":"O3B MPOWER F3","OBJECT_ID":"2023-059B","EPOCH":"2026-07-14T23:48:57.146112","CLASSIFICATION_TYPE":"U","MEAN_MOTION":5.00116436,"ECCENTRICITY":0.0006669,"INCLINATION":0.0636,"RA_OF_ASC_NODE":349.247,"ARG_OF_PERICENTER":120.8493,"MEAN_ANOMALY":249.9719,"EPHEMERIS_TYPE":0,"NORAD_CAT_ID":56368,"ELEMENT_SET_NO":999,"REV_AT_EPOCH":5612,"BSTAR":0,"MEAN_MOTION_DOT":-2.3e-7,"MEAN_MOTION_DDOT":0},{"OBJECT_NAME":"O3B MPOWER F5","OBJECT_ID":"2023-175A","EPOCH":"2026-07-15T02:14:23.300736","CLASSIFICATION_TYPE":"U","MEAN_MOTION":5.00115828,"ECCENTRICITY":0.0005505,"INCLINATION":0.0523,"RA_OF_ASC_NODE":9.1642,"ARG_OF_PERICENTER":122.608,"MEAN_ANOMALY":228.2711,"EPHEMERIS_TYPE":0,"NORAD_CAT_ID":58346,"ELEMENT_SET_NO":999,"REV_AT_EPOCH":5083,"BSTAR":0,"MEAN_MOTION_DOT":-2.3e-7,"MEAN_MOTION_DDOT":0},{"OBJECT_NAME":"O3B MPOWER F6","OBJECT_ID":"2023-175B","EPOCH":"2026-07-14T23:51:13.971744","CLASSIFICATION_TYPE":"U","MEAN_MOTION":5.00115739,"ECCENTRICITY":0.0004431,"INCLINATION":0.054,"RA_OF_ASC_NODE":0.8408,"ARG_OF_PERICENTER":111.3634,"MEAN_ANOMALY":247.8392,"EPHEMERIS_TYPE":0,"NORAD_CAT_ID":58347,"ELEMENT_SET_NO":999,"REV_AT_EPOCH":4974,"BSTAR":0,"MEAN_MOTION_DOT":-2.3e-7,"MEAN_MOTION_DDOT":0},{"OBJECT_NAME":"O3B MPOWER F7","OBJECT_ID":"2024-244A","EPOCH":"2026-07-14T15:51:09.897408","CLASSIFICATION_TYPE":"U","MEAN_MOTION":5.00115331,"ECCENTRICITY":0.00059307,"INCLINATION":0.066,"RA_OF_ASC_NODE":342.9592,"ARG_OF_PERICENTER":126.1262,"MEAN_ANOMALY":250.9755,"EPHEMERIS_TYPE":0,"NORAD_CAT_ID":62362,"ELEMENT_SET_NO":999,"REV_AT_EPOCH":2790,"BSTAR":0,"MEAN_MOTION_DOT":-2.3e-7,"MEAN_MOTION_DDOT":0},{"OBJECT_NAME":"O3B MPOWER F8","OBJECT_ID":"2024-244B","EPOCH":"2026-07-15T00:39:15.485184","CLASSIFICATION_TYPE":"U","MEAN_MOTION":5.00115028,"ECCENTRICITY":0.0005756,"INCLINATION":0.0145,"RA_OF_ASC_NODE":4.1384,"ARG_OF_PERICENTER":98.0568,"MEAN_ANOMALY":257.8655,"EPHEMERIS_TYPE":0,"NORAD_CAT_ID":62363,"ELEMENT_SET_NO":999,"REV_AT_EPOCH":2226,"BSTAR":0,"MEAN_MOTION_DOT":-2.3e-7,"MEAN_MOTION_DDOT":0},{"OBJECT_NAME":"O3B MPOWER F9","OBJECT_ID":"2025-153A","EPOCH":"2026-07-14T23:03:19.677024","CLASSIFICATION_TYPE":"U","MEAN_MOTION":5.00115623,"ECCENTRICITY":0.0006727,"INCLINATION":0.0613,"RA_OF_ASC_NODE":5.5774,"ARG_OF_PERICENTER":126.2301,"MEAN_ANOMALY":228.2465,"EPHEMERIS_TYPE":0,"NORAD_CAT_ID":64866,"ELEMENT_SET_NO":999,"REV_AT_EPOCH":2095,"BSTAR":0,"MEAN_MOTION_DOT":-2.3e-7,"MEAN_MOTION_DDOT":0},{"OBJECT_NAME":"O3B MPOWER F10","OBJECT_ID":"2025-153B","EPOCH":"2026-07-15T03:02:17.146176","CLASSIFICATION_TYPE":"U","MEAN_MOTION":5.00114871,"ECCENTRICITY":0.0002469,"INCLINATION":0.0584,"RA_OF_ASC_NODE":2.1621,"ARG_OF_PERICENTER":245.083,"MEAN_ANOMALY":112.725,"EPHEMERIS_TYPE":0,"NORAD_CAT_ID":64867,"ELEMENT_SET_NO":999,"REV_AT_EPOCH":2342,"BSTAR":0,"MEAN_MOTION_DOT":-2.3e-7,"MEAN_MOTION_DDOT":0}]}
